CREW DRAGON 9           
1 61447U 24178A   24279.79195405  .00031326  00000+0  56846-3 0  9994
2 61447  51.6361 127.5460 0009172  40.4137 319.7532 15.49263048475502
STARLINK-32474          
1 61260U 24175T   24279.91667824 -.00777219  00000+0 -37219-2 0  9999
2 61260  53.1641 100.1315 0001016  45.2349 145.4523 15.83937824  2863
STARLINK-32447          
1 61261U 24175U   24279.91667824 -.00805923  00000+0 -38674-2 0  9990
2 61261  53.1640 100.1163 0001071  50.4988 147.5106 15.83963409  2905
STARLINK-32446          
1 61262U 24175V   24279.91667824 -.00793478  00000+0 -38044-2 0  9993
2 61262  53.1641 100.1238 0000999  43.8739 150.5493 15.83951847  2915
2024-174F               
1 61263U 24174F   24279.96541633  .00216096  14284-4  14438-2 0  9996
2 61263  97.4333 285.6893 0175264 351.0486   8.7654 15.57128003  1667
2024-174G               
1 61443U 24174G   24279.88465720  .00529371  81571-4  31176-2 0  9993
2 61443  97.4305 285.6424 0159644 351.2037   8.6428 15.62263518  1467
SHIJIAN-19 (SJ-19)      
1 61444U 24177A   24279.89869623  .00020407  00000+0  11633-3 0  9994
2 61444  41.6003 106.8345 0007535 354.2323   5.8437 15.78398286  1481
CZ-2D R/B               
1 61445U 24177B   24279.82578003  .00263640  00000+0  11579-2 0  9993
2 61445  41.3914 106.9119 0020279 312.6448  47.2688 15.82737664  1330
2024-179A               
1 61448U 24179A   24278.48676111  .00000148  00000+0  00000+0 0  9994
2 61448  30.0000 357.3088 0004000 321.8000 177.5900 15.23529867    07
